{
  "type": "FeatureCollection",
  "features": [
    {
      "type": "Feature",
      "properties": {
        "seg_id": "NTU_ACW_North_Hill_Hall_9",
        "order": 0,
        "loop": "NTU ACW",
        "from": "North Hill",
        "to": "Hall 9",
        "bidir": true
      },
      "geometry": {
        "type": "LineString",
        "coordinates": [
          [
            103.68840695610908,
            1.354711186513427
          ],
          [
            103.688155,
            1.354979
          ],
          [
            103.688009,
            1.355159
          ],
          [
            103.687957,
            1.355149
          ],
          [
            103.687905,
            1.35514
          ],
          [
            103.687847,
            1.355162
          ],
          [
            103.687573,
            1.354933
          ],
          [
            103.687212,
            1.354609
          ],
          [
            103.686971,
            1.354347
          ],
          [
            103.686573,
            1.35362
          ],
          [
            103.686162,
            1.352915
          ],
          [
            103.685987,
            1.3526
          ],
          [
            103.685889,
            1.352345
          ],
          [
            103.685819,
            1.352129
          ],
          [
            103.68579020385945,
            1.3518314398810651
          ]
        ]
      }
    },
    {
      "type": "Feature",
      "properties": {
        "seg_id": "NTU_ACW_Hall_9_ADM",
        "order": 1,
        "loop": "NTU ACW",
        "from": "Hall 9",
        "to": "ADM",
        "bidir": true
      },
      "geometry": {
        "type": "LineString",
        "coordinates": [
          [
            103.68579020385945,
            1.3518314398810651
          ],
          [
            103.685783,
            1.351757
          ],
          [
            103.685764,
            1.351076
          ],
          [
            103.685779,
            1.35072
          ],
          [
            103.685746,
            1.350529
          ],
          [
            103.685673,
            1.350347
          ],
          [
            103.685544,
            1.350087
          ],
          [
            103.685402,
            1.349919
          ],
          [
            103.685208,
            1.349684
          ],
          [
            103.68518131131589,
            1.3496554493146617
          ]
        ]
      }
    },
    {
      "type": "Feature",
      "properties": {
        "seg_id": "NTU_ACW_ADM_Crespion",
        "order": 2,
        "loop": "NTU ACW",
        "from": "ADM",
        "to": "Crespion",
        "bidir": true
      },
      "geometry": {
        "type": "LineString",
        "coordinates": [
          [
            103.68518131131589,
            1.3496554493146617
          ],
          [
            103.685122,
            1.349592
          ],
          [
            103.685135,
            1.34948
          ],
          [
            103.685204,
            1.349315
          ],
          [
            103.685308,
            1.349168
          ],
          [
            103.685422,
            1.349077
          ],
          [
            103.685576,
            1.348986
          ],
          [
            103.685776,
            1.34894
          ],
          [
            103.685918,
            1.348883
          ],
          [
            103.686089,
            1.348832
          ],
          [
            103.686289,
            1.348735
          ],
          [
            103.686471,
            1.348541
          ],
          [
            103.686557,
            1.348399
          ],
          [
            103.686602,
            1.348228
          ],
          [
            103.686568,
            1.347624
          ],
          [
            103.686557,
            1.347282
          ],
          [
            103.686568,
            1.347095
          ],
          [
            103.686648,
            1.346936
          ],
          [
            103.686825,
            1.346748
          ],
          [
            103.687401,
            1.346241
          ],
          [
            103.687697,
            1.345893
          ],
          [
            103.68777637869033,
            1.3457851088490553
          ]
        ]
      }
    },
    {
      "type": "Feature",
      "properties": {
        "seg_id": "NTU_ACW_Crespion_SRC",
        "order": 3,
        "loop": "NTU ACW",
        "from": "Crespion",
        "to": "SRC",
        "bidir": true
      },
      "geometry": {
        "type": "LineString",
        "coordinates": [
          [
            103.68777637869033,
            1.3457851088490553
          ],
          [
            103.688045,
            1.34542
          ],
          [
            103.688318,
            1.345038
          ],
          [
            103.688518,
            1.34501
          ],
          [
            103.689607,
            1.345973
          ],
          [
            103.689709,
            1.346178
          ],
          [
            103.689744,
            1.34636
          ],
          [
            103.689744,
            1.346554
          ],
          [
            103.689744,
            1.346856
          ],
          [
            103.689681,
            1.34689
          ],
          [
            103.689658,
            1.346959
          ],
          [
            103.689675,
            1.347044
          ],
          [
            103.689652,
            1.347665
          ],
          [
            103.6897,
            1.347899
          ],
          [
            103.68974024645516,
            1.3490801866608046
          ]
        ]
      }
    },
    {
      "type": "Feature",
      "properties": {
        "seg_id": "NTU_ACW_SRC_Kindergarten",
        "order": 4,
        "loop": "NTU ACW",
        "from": "SRC",
        "to": "Kindergarten",
        "bidir": true
      },
      "geometry": {
        "type": "LineString",
        "coordinates": [
          [
            103.68974024645516,
            1.3490801866608046
          ],
          [
            103.689786,
            1.350423
          ],
          [
            103.689808,
            1.351455
          ],
          [
            103.689745,
            1.351913
          ],
          [
            103.6894180946093,
            1.3529082593519768
          ]
        ]
      }
    },
    {
      "type": "Feature",
      "properties": {
        "seg_id": "NTU_ACW_Kindergarten_North_Hill",
        "order": 5,
        "loop": "NTU ACW",
        "from": "Kindergarten",
        "to": "North Hill",
        "bidir": true
      },
      "geometry": {
        "type": "LineString",
        "coordinates": [
          [
            103.6894180946093,
            1.3529082593519768
          ],
          [
            103.689228,
            1.353487
          ],
          [
            103.688869,
            1.354102
          ],
          [
            103.688453,
            1.354661
          ],
          [
            103.688445,
            1.354672
          ],
          [
            103.688441,
            1.354675
          ],
          [
            103.68840695610908,
            1.354711186513427
          ]
        ]
      }
    }
  ]
}