{
  "type": "FeatureCollection",
  "features": [
    {
      "type": "Feature",
      "properties": {
        "seg_id": "DUMMY_A_B",
        "order": 0,
        "loop": "dummy_loop",
        "from": "A",
        "to": "B",
        "bidir": true
      },
      "geometry": {
        "type": "LineString",
        "coordinates": [
          [103.8000, 1.3000],
          [103.8001, 1.3000],
          [103.8002, 1.3000],
          [103.8003, 1.3000]
        ]
      }
    },
    {
      "type": "Feature",
      "properties": {
        "seg_id": "DUMMY_B_C",
        "order": 1,
        "loop": "dummy_loop",
        "from": "B",
        "to": "C",
        "bidir": true
      },
      "geometry": {
        "type": "LineString",
        "coordinates": [
          [103.8003, 1.3000],
          [103.8004, 1.3000],
          [103.8005, 1.3000],
          [103.8006, 1.3000]
        ]
      }
    }
  ]
}
