{
  "type": "FeatureCollection",
  "features": [
    {
      "type": "Feature",
      "properties": {
        "seg_id": "Senkang_East_Outer_Sengkang_Compassvale",
        "order": 0,
        "loop": "Senkang East Outer",
        "from": "Sengkang",
        "to": "Compassvale",
        "bidir": false
      },
      "geometry": {
        "type": "LineString",
        "coordinates": [
          [
            103.8953489332473,
            1.3916566633389051
          ],
          [
            103.89539,
            1.391786
          ],
          [
            103.895791,
            1.392855
          ],
          [
            103.895814,
            1.392902
          ],
          [
            103.896127,
            1.393618
          ],
          [
            103.896346,
            1.394047
          ],
          [
            103.896534,
            1.39441
          ],
          [
            103.896534,
            1.39441
          ],
          [
            103.896767,
            1.394898
          ],
          [
            103.896896,
            1.395085
          ],
          [
            103.897071,
            1.395221
          ],
          [
            103.897248,
            1.395293
          ],
          [
            103.897409,
            1.39533
          ],
          [
            103.897601,
            1.395326
          ],
          [
            103.897906,
            1.39526
          ],
          [
            103.899215,
            1.394958
          ],
          [
            103.899786,
            1.394805
          ],
          [
            103.90025,
            1.394637
          ],
          [
            103.900269,
            1.394631
          ],
          [
            103.900286,
            1.394624
          ],
          [
            103.900452,
            1.394563
          ],
          [
            103.9004535591736,
            1.3945624184704601
          ]
        ]
      }
    },
    {
      "type": "Feature",
      "properties": {
        "seg_id": "Senkang_East_Outer_Compassvale_Rumbia",
        "order": 1,
        "loop": "Senkang East Outer",
        "from": "Compassvale",
        "to": "Rumbia",
        "bidir": false
      },
      "geometry": {
        "type": "LineString",
        "coordinates": [
          [
            103.90045355917859,
            1.3945624184685275
          ],
          [
            103.900637,
            1.394494
          ],
          [
            103.900848,
            1.394424
          ],
          [
            103.90129,
            1.394238
          ],
          [
            103.901745,
            1.394046
          ],
          [
            103.903201,
            1.393507
          ],
          [
            103.903507,
            1.393361
          ],
          [
            103.90411,
            1.393046
          ],
          [
            103.90462,
            1.392729
          ],
          [
            103.905085,
            1.392385
          ],
          [
            103.905539,
            1.392021
          ],
          [
            103.90600118830478,
            1.3915352786858048
          ]
        ]
      }
    },
    {
      "type": "Feature",
      "properties": {
        "seg_id": "Senkang_East_Outer_Rumbia_Bakau",
        "order": 2,
        "loop": "Senkang East Outer",
        "from": "Rumbia",
        "to": "Bakau",
        "bidir": false
      },
      "geometry": {
        "type": "LineString",
        "coordinates": [
          [
            103.90600118830478,
            1.3915352786858048
          ],
          [
            103.90603,
            1.391505
          ],
          [
            103.906348,
            1.391171
          ],
          [
            103.90666,
            1.390704
          ],
          [
            103.906758,
            1.390496
          ],
          [
            103.906827,
            1.390293
          ],
          [
            103.906857,
            1.390072
          ],
          [
            103.906849,
            1.389869
          ],
          [
            103.906797,
            1.389635
          ],
          [
            103.906703,
            1.389426
          ],
          [
            103.906575,
            1.38921
          ],
          [
            103.905388,
            1.38808
          ],
          [
            103.90537568997541,
            1.38806828518539
          ]
        ]
      }
    },
    {
      "type": "Feature",
      "properties": {
        "seg_id": "Senkang_East_Outer_Bakau_Kangkar",
        "order": 3,
        "loop": "Senkang East Outer",
        "from": "Bakau",
        "to": "Kangkar",
        "bidir": false
      },
      "geometry": {
        "type": "LineString",
        "coordinates": [
          [
            103.90537568997541,
            1.38806828518539
          ],
          [
            103.904023,
            1.386781
          ],
          [
            103.903747,
            1.386479
          ],
          [
            103.90332,
            1.38593
          ],
          [
            103.902961,
            1.385289
          ],
          [
            103.90232,
            1.384058
          ],
          [
            103.90225415625434,
            1.383933837508189
          ]
        ]
      }
    },
    {
      "type": "Feature",
      "properties": {
        "seg_id": "Senkang_East_Outer_Kangkar_Ranggung",
        "order": 4,
        "loop": "Senkang East Outer",
        "from": "Kangkar",
        "to": "Ranggung",
        "bidir": false
      },
      "geometry": {
        "type": "LineString",
        "coordinates": [
          [
            103.90225415625434,
            1.383933837508189
          ],
          [
            103.90225,
            1.383926
          ],
          [
            103.902156,
            1.383748
          ],
          [
            103.901998,
            1.383429
          ],
          [
            103.901932,
            1.383246
          ],
          [
            103.901893,
            1.383052
          ],
          [
            103.901842,
            1.382499
          ],
          [
            103.901767,
            1.382049
          ],
          [
            103.901714,
            1.381893
          ],
          [
            103.90162,
            1.381745
          ],
          [
            103.901496,
            1.381611
          ],
          [
            103.901374,
            1.381524
          ],
          [
            103.901251,
            1.381473
          ],
          [
            103.901115,
            1.381445
          ],
          [
            103.900958,
            1.381441
          ],
          [
            103.900786,
            1.38147
          ],
          [
            103.900339,
            1.381595
          ],
          [
            103.900046,
            1.381714
          ],
          [
            103.899827,
            1.381834
          ],
          [
            103.899617,
            1.381994
          ],
          [
            103.898351,
            1.383074
          ],
          [
            103.89792,
            1.383439
          ],
          [
            103.897493,
            1.383859
          ],
          [
            103.89736061090787,
            1.3839913890921314
          ]
        ]
      }
    },
    {
      "type": "Feature",
      "properties": {
        "seg_id": "Senkang_East_Outer_Ranggung_Sengkang",
        "order": 5,
        "loop": "Senkang East Outer",
        "from": "Ranggung",
        "to": "Sengkang",
        "bidir": false
      },
      "geometry": {
        "type": "LineString",
        "coordinates": [
          [
            103.89736061090787,
            1.3839913890921314
          ],
          [
            103.89733,
            1.384022
          ],
          [
            103.896983,
            1.38437
          ],
          [
            103.896582,
            1.384853
          ],
          [
            103.895799,
            1.385696
          ],
          [
            103.89561,
            1.385868
          ],
          [
            103.895388,
            1.386043
          ],
          [
            103.895068,
            1.386236
          ],
          [
            103.894708,
            1.386408
          ],
          [
            103.894373,
            1.386554
          ],
          [
            103.894215,
            1.386642
          ],
          [
            103.894102,
            1.386746
          ],
          [
            103.894017,
            1.386886
          ],
          [
            103.893964,
            1.387051
          ],
          [
            103.893954,
            1.387191
          ],
          [
            103.893976,
            1.387334
          ],
          [
            103.894041,
            1.387531
          ],
          [
            103.89441,
            1.388751
          ],
          [
            103.894582,
            1.389268
          ],
          [
            103.894799,
            1.389939
          ],
          [
            103.895303,
            1.391512
          ],
          [
            103.89534893324817,
            1.391656663333296
          ]
        ]
      }
    },
    {
      "type": "Feature",
      "properties": {
        "seg_id": "Senkang_East_Inner_Sengkang_Ranggung",
        "order": 0,
        "loop": "Senkang East Inner",
        "from": "Sengkang",
        "to": "Ranggung",
        "bidir": false
      },
      "geometry": {
        "type": "LineString",
        "coordinates": [
          [
            103.8954319055193,
            1.3915142863739336
          ],
          [
            103.895419,
            1.391476
          ],
          [
            103.895192,
            1.3908
          ],
          [
            103.894839,
            1.389916
          ],
          [
            103.89457,
            1.38905
          ],
          [
            103.894483,
            1.388764
          ],
          [
            103.894335,
            1.3883
          ],
          [
            103.89403,
            1.387297
          ],
          [
            103.894017,
            1.387136
          ],
          [
            103.894046,
            1.386976
          ],
          [
            103.894131,
            1.386806
          ],
          [
            103.894236,
            1.386687
          ],
          [
            103.894381,
            1.386589
          ],
          [
            103.894727,
            1.386441
          ],
          [
            103.895075,
            1.386278
          ],
          [
            103.895415,
            1.38607
          ],
          [
            103.895636,
            1.385894
          ],
          [
            103.895835,
            1.385712
          ],
          [
            103.896621,
            1.384871
          ],
          [
            103.897049,
            1.384428
          ],
          [
            103.89713,
            1.384345
          ],
          [
            103.89738602971084,
            1.3840917941462674
          ]
        ]
      }
    },
    {
      "type": "Feature",
      "properties": {
        "seg_id": "Senkang_East_Inner_Ranggung_Kangkar",
        "order": 1,
        "loop": "Senkang East Inner",
        "from": "Ranggung",
        "to": "Kangkar",
        "bidir": false
      },
      "geometry": {
        "type": "LineString",
        "coordinates": [
          [
            103.89738602971084,
            1.3840917941462674
          ],
          [
            103.897402,
            1.384076
          ],
          [
            103.897463,
            1.384017
          ],
          [
            103.897552,
            1.383928
          ],
          [
            103.897662,
            1.383819
          ],
          [
            103.897971,
            1.383512
          ],
          [
            103.898373,
            1.383106
          ],
          [
            103.899638,
            1.382023
          ],
          [
            103.899843,
            1.381869
          ],
          [
            103.900063,
            1.381746
          ],
          [
            103.900351,
            1.381634
          ],
          [
            103.900789,
            1.381513
          ],
          [
            103.900969,
            1.381485
          ],
          [
            103.90111,
            1.381484
          ],
          [
            103.901234,
            1.381505
          ],
          [
            103.901349,
            1.381557
          ],
          [
            103.901475,
            1.381638
          ],
          [
            103.901592,
            1.381765
          ],
          [
            103.90168,
            1.381904
          ],
          [
            103.90173,
            1.382058
          ],
          [
            103.901804,
            1.382509
          ],
          [
            103.901852,
            1.383051
          ],
          [
            103.901869,
            1.383251
          ],
          [
            103.901925,
            1.383482
          ],
          [
            103.902071,
            1.383789
          ],
          [
            103.90214964277952,
            1.383942939057787
          ]
        ]
      }
    },
    {
      "type": "Feature",
      "properties": {
        "seg_id": "Senkang_East_Inner_Kangkar_Bakau",
        "order": 2,
        "loop": "Senkang East Inner",
        "from": "Kangkar",
        "to": "Bakau",
        "bidir": false
      },
      "geometry": {
        "type": "LineString",
        "coordinates": [
          [
            103.90214964277952,
            1.383942939057787
          ],
          [
            103.902165,
            1.383973
          ],
          [
            103.9024,
            1.384432
          ],
          [
            103.902552,
            1.384717
          ],
          [
            103.902879,
            1.385329
          ],
          [
            103.902951,
            1.385451
          ],
          [
            103.903244,
            1.385951
          ],
          [
            103.903711,
            1.386505
          ],
          [
            103.903994,
            1.386808
          ],
          [
            103.90533111070407,
            1.3880812985192252
          ]
        ]
      }
    },
    {
      "type": "Feature",
      "properties": {
        "seg_id": "Senkang_East_Inner_Bakau_Rumbia",
        "order": 3,
        "loop": "Senkang East Inner",
        "from": "Bakau",
        "to": "Rumbia",
        "bidir": false
      },
      "geometry": {
        "type": "LineString",
        "coordinates": [
          [
            103.90533111070407,
            1.3880812985192252
          ],
          [
            103.905356,
            1.388105
          ],
          [
            103.906544,
            1.389236
          ],
          [
            103.906681,
            1.389441
          ],
          [
            103.906764,
            1.389647
          ],
          [
            103.906814,
            1.389874
          ],
          [
            103.906823,
            1.390079
          ],
          [
            103.906784,
            1.390288
          ],
          [
            103.906728,
            1.390476
          ],
          [
            103.906623,
            1.39069
          ],
          [
            103.906455,
            1.390918
          ],
          [
            103.906281,
            1.391115
          ],
          [
            103.90594794436971,
            1.391461018873373
          ]
        ]
      }
    },
    {
      "type": "Feature",
      "properties": {
        "seg_id": "Senkang_East_Inner_Rumbia_Compassvale",
        "order": 4,
        "loop": "Senkang East Inner",
        "from": "Rumbia",
        "to": "Compassvale",
        "bidir": false
      },
      "geometry": {
        "type": "LineString",
        "coordinates": [
          [
            103.90594794436971,
            1.391461018873373
          ],
          [
            103.905947,
            1.391462
          ],
          [
            103.905476,
            1.391952
          ],
          [
            103.905058,
            1.39235
          ],
          [
            103.904591,
            1.392705
          ],
          [
            103.904095,
            1.393018
          ],
          [
            103.903489,
            1.393334
          ],
          [
            103.903184,
            1.393475
          ],
          [
            103.901728,
            1.394009
          ],
          [
            103.900613,
            1.39441
          ],
          [
            103.90042872061758,
            1.3944782516231182
          ]
        ]
      }
    },
    {
      "type": "Feature",
      "properties": {
        "seg_id": "Senkang_East_Inner_Compassvale_Sengkang",
        "order": 5,
        "loop": "Senkang East Inner",
        "from": "Compassvale",
        "to": "Sengkang",
        "bidir": false
      },
      "geometry": {
        "type": "LineString",
        "coordinates": [
          [
            103.90042872061264,
            1.3944782516251824
          ],
          [
            103.900424,
            1.39448
          ],
          [
            103.899757,
            1.394726
          ],
          [
            103.89921,
            1.394921
          ],
          [
            103.897892,
            1.395226
          ],
          [
            103.897597,
            1.395282
          ],
          [
            103.897411,
            1.39528
          ],
          [
            103.897261,
            1.395247
          ],
          [
            103.897095,
            1.395174
          ],
          [
            103.896935,
            1.395044
          ],
          [
            103.896786,
            1.39485
          ],
          [
            103.896406,
            1.394057
          ],
          [
            103.89615,
            1.3936
          ],
          [
            103.895998,
            1.393236
          ],
          [
            103.895998,
            1.393236
          ],
          [
            103.895838,
            1.392869
          ],
          [
            103.895509,
            1.391743
          ],
          [
            103.89543190552224,
            1.3915142863865555
          ]
        ]
      }
    }
  ]
}
